start=new Date('2022-06-22T00:00:00.000Z').valueOf();
sats=[{"SEMIMAJOR_AXIS":"6925.358","NORAD_CAT_ID":"46768","INCLINATION":"53.0550","RA_OF_ASC_NODE":"308.1811","RCS_SIZE":"LARGE","OBJECT_TYPE":"PAYLOAD","MEAN_ANOMALY":"293.5857","EPOCH":"2022-06-21T17:53:52.578816","TLE_LINE2":"2 46768  53.0550 308.1811 0001293  66.5268 293.5857 15.06397024 91940","MEAN_MOTION":"15.06397024","ELEMENT_SET_NO":"999","PERIOD":"95.592","ECCENTRICITY":"0.00012930","OBJECT_ID":"2020-074AF","FILE":"3499203","LAUNCH_DATE":"2020-10-24","CLASSIFICATION_TYPE":"U","TLE_LINE1":"1 46768U 20074AF  22172.74574744  .00000856  00000-0  76348-4 0  9991","REF_FRAME":"TEME","MEAN_MOTION_DDOT":"0.0000000000000","MEAN_MOTION_DOT":"0.00000856","REV_AT_EPOCH":"9194","GP_ID":"206580533","CENTER_NAME":"EARTH","ARG_OF_PERICENTER":"66.5268","COUNTRY_CODE":"US","SITE":"AFETR","EPHEMERIS_TYPE":"0","MEAN_ELEMENT_THEORY":"SGP4","TIME_SYSTEM":"UTC","APOAPSIS":"548.118","DECAY_DATE":null,"PERIAPSIS":"546.327","BSTAR":"0.00007634800000","OBJECT_NAME":"STARLINK-1918"},{"LAUNCH_DATE":"2020-10-24","FILE":"3499203","OBJECT_ID":"2020-074AH","ECCENTRICITY":"0.00014510","TLE_LINE1":"1 46770U 20074AH  22172.75318011  .00001153  00000-0  96258-4 0  9991","CLASSIFICATION_TYPE":"U","EPOCH":"2022-06-21T18:04:34.761504","MEAN_ANOMALY":"301.3688","OBJECT_TYPE":"PAYLOAD","RCS_SIZE":"LARGE","RA_OF_ASC_NODE":"308.6943","INCLINATION":"53.0549","SEMIMAJOR_AXIS":"6925.335","NORAD_CAT_ID":"46770","PERIOD":"95.592","ELEMENT_SET_NO":"999","MEAN_MOTION":"15.06404522","TLE_LINE2":"2 46770  53.0549 308.6943 0001451  58.7443 301.3688 15.06404522 91937","OBJECT_NAME":"STARLINK-1932","BSTAR":"0.00009625800000","APOAPSIS":"548.205","DECAY_DATE":null,"PERIAPSIS":"546.195","TIME_SYSTEM":"UTC","CENTER_NAME":"EARTH","GP_ID":"206581776","REV_AT_EPOCH":"9193","MEAN_MOTION_DOT":"0.00001153","MEAN_MOTION_DDOT":"0.0000000000000","REF_FRAME":"TEME","MEAN_ELEMENT_THEORY":"SGP4","EPHEMERIS_TYPE":"0","SITE":"AFETR","COUNTRY_CODE":"US","ARG_OF_PERICENTER":"58.7443"},{"TIME_SYSTEM":"UTC","DECAY_DATE":null,"PERIAPSIS":"546.210","APOAPSIS":"548.241","BSTAR":"0.00002634500000","OBJECT_NAME":"STARLINK-1936","REF_FRAME":"TEME","MEAN_MOTION_DDOT":"0.0000000000000","REV_AT_EPOCH":"9196","MEAN_MOTION_DOT":"0.00000111","GP_ID":"206581525","CENTER_NAME":"EARTH","ARG_OF_PERICENTER":"70.8925","COUNTRY_CODE":"US","SITE":"AFETR","EPHEMERIS_TYPE":"0","MEAN_ELEMENT_THEORY":"SGP4","OBJECT_ID":"2020-074AK","ECCENTRICITY":"0.00014660","FILE":"3499203","LAUNCH_DATE":"2020-10-24","CLASSIFICATION_TYPE":"U","TLE_LINE1":"1 46772U 20074AK  22172.88486496  .00000111  00000-0  26345-4 0  9993","NORAD_CAT_ID":"46772","SEMIMAJOR_AXIS":"6925.361","INCLINATION":"53.0550","RA_OF_ASC_NODE":"307.5444","OBJECT_TYPE":"PAYLOAD","RCS_SIZE":"LARGE","MEAN_ANOMALY":"289.2223","EPOCH":"2022-06-21T21:14:12.332544","MEAN_MOTION":"15.06396033","TLE_LINE2":"2 46772  53.0550 307.5444 0001466  70.8925 289.2223 15.06396033 91960","ELEMENT_SET_NO":"999","PERIOD":"95.592"},{"CENTER_NAME":"EARTH","GP_ID":"206580281","MEAN_MOTION_DOT":"0.00019453","REV_AT_EPOCH":"9205","MEAN_MOTION_DDOT":"0.0000000000000","REF_FRAME":"TEME","MEAN_ELEMENT_THEORY":"SGP4","EPHEMERIS_TYPE":"0","SITE":"AFETR","COUNTRY_CODE":"US","ARG_OF_PERICENTER":"134.2711","OBJECT_NAME":"STARLINK-1939","BSTAR":"0.00103180000000","PERIAPSIS":"519.335","DECAY_DATE":null,"APOAPSIS":"520.300","TIME_SYSTEM":"UTC","EPOCH":"2022-06-21T15:17:30.434784","MEAN_ANOMALY":"225.8339","RCS_SIZE":"LARGE","OBJECT_TYPE":"PAYLOAD","INCLINATION":"53.0511","RA_OF_ASC_NODE":"300.2161","SEMIMAJOR_AXIS":"6897.953","NORAD_CAT_ID":"46774","PERIOD":"95.025","ELEMENT_SET_NO":"999","TLE_LINE2":"2 46774  53.0511 300.2161 0000700 134.2711 225.8339 15.15383165 92050","MEAN_MOTION":"15.15383165","LAUNCH_DATE":"2020-10-24","FILE":"3499203","ECCENTRICITY":"0.00007000","OBJECT_ID":"2020-074AM","TLE_LINE1":"1 46774U 20074AM  22172.63715781  .00019453  00000-0  10318-2 0  9990","CLASSIFICATION_TYPE":"U"},{"REF_FRAME":"TEME","MEAN_MOTION_DOT":"0.00008426","REV_AT_EPOCH":"9243","MEAN_MOTION_DDOT":"0.0000000000000","GP_ID":"206581032","CENTER_NAME":"EARTH","COUNTRY_CODE":"US","ARG_OF_PERICENTER":"23.7237","SITE":"AFETR","MEAN_ELEMENT_THEORY":"SGP4","EPHEMERIS_TYPE":"0","TIME_SYSTEM":"UTC","DECAY_DATE":null,"PERIAPSIS":"437.186","APOAPSIS":"442.145","OBJECT_NAME":"STARLINK-1946","BSTAR":"0.00020270000000","SEMIMAJOR_AXIS":"6817.801","NORAD_CAT_ID":"46776","RCS_SIZE":"LARGE","OBJECT_TYPE":"PAYLOAD","INCLINATION":"53.0520","RA_OF_ASC_NODE":"273.7536","EPOCH":"2022-06-21T19:09:19.270944","MEAN_ANOMALY":"336.3934","MEAN_MOTION":"15.42184369","TLE_LINE2":"2 46776  53.0520 273.7536 0003637  23.7237 336.3934 15.42184369 92435","ELEMENT_SET_NO":"999","PERIOD":"93.374","OBJECT_ID":"2020-074AP","ECCENTRICITY":"0.00036370","FILE":"3499203","LAUNCH_DATE":"2020-10-24","CLASSIFICATION_TYPE":"U","TLE_LINE1":"1 46776U 20074AP  22172.79813971  .00008426  00000-0  20270-3 0  9996"},{"TIME_SYSTEM":"UTC","PERIAPSIS":"546.178","DECAY_DATE":null,"APOAPSIS":"548.249","OBJECT_NAME":"STARLINK-1798","BSTAR":"0.00000501010000","REF_FRAME":"TEME","REV_AT_EPOCH":"9229","MEAN_MOTION_DOT":"-0.00000207","MEAN_MOTION_DDOT":"0.0000000000000","GP_ID":"206581277","CENTER_NAME":"EARTH","COUNTRY_CODE":"US","ARG_OF_PERICENTER":"62.1031","SITE":"AFETR","MEAN_ELEMENT_THEORY":"SGP4","EPHEMERIS_TYPE":"0","ECCENTRICITY":"0.00014950","OBJECT_ID":"2020-074AS","FILE":"3499203","LAUNCH_DATE":"2020-10-24","CLASSIFICATION_TYPE":"U","TLE_LINE1":"1 46779U 20074AS  22172.78306745 -.00000207  00000-0  50101-5 0  9992","SEMIMAJOR_AXIS":"6925.349","NORAD_CAT_ID":"46779","RCS_SIZE":"LARGE","OBJECT_TYPE":"PAYLOAD","INCLINATION":"53.0559","RA_OF_ASC_NODE":"283.0167","EPOCH":"2022-06-21T18:47:37.027680","MEAN_ANOMALY":"298.0109","MEAN_MOTION":"15.06399947","TLE_LINE2":"2 46779  53.0559 283.0167 0001495  62.1031 298.0109 15.06399947 92295","ELEMENT_SET_NO":"999","PERIOD":"95.592"},{"BSTAR":"0.00016438000000","OBJECT_NAME":"STARLINK-1832","DECAY_DATE":null,"APOAPSIS":"548.264","PERIAPSIS":"546.121","TIME_SYSTEM":"UTC","CENTER_NAME":"EARTH","GP_ID":"206582025","MEAN_MOTION_DDOT":"0.0000000000000","MEAN_MOTION_DOT":"0.00002168","REV_AT_EPOCH":"9229","REF_FRAME":"TEME","EPHEMERIS_TYPE":"0","MEAN_ELEMENT_THEORY":"SGP4","SITE":"AFETR","ARG_OF_PERICENTER":"67.8781","COUNTRY_CODE":"US","LAUNCH_DATE":"2020-10-24","FILE":"3499203","OBJECT_ID":"2020-074AT","ECCENTRICITY":"0.00015470","TLE_LINE1":"1 46780U 20074AT  22172.77200409  .00002168  00000-0  16438-3 0  9993","CLASSIFICATION_TYPE":"U","MEAN_ANOMALY":"292.2372","EPOCH":"2022-06-21T18:31:41.153376","INCLINATION":"53.0540","RA_OF_ASC_NODE":"283.0735","OBJECT_TYPE":"PAYLOAD","RCS_SIZE":"LARGE","SEMIMAJOR_AXIS":"6925.328","NORAD_CAT_ID":"46780","PERIOD":"95.592","ELEMENT_SET_NO":"999","MEAN_MOTION":"15.06406838","TLE_LINE2":"2 46780  53.0540 283.0735 0001547  67.8781 292.2372 15.06406838 92296"},{"NORAD_CAT_ID":"46781","SEMIMAJOR_AXIS":"6925.355","INCLINATION":"53.0555","RA_OF_ASC_NODE":"293.5877","OBJECT_TYPE":"PAYLOAD","RCS_SIZE":"LARGE","MEAN_ANOMALY":"284.6382","EPOCH":"2022-06-21T15:45:49.503744","TLE_LINE2":"2 46781  53.0555 293.5877 0001386  75.4760 284.6382 15.06397870 92144","MEAN_MOTION":"15.06397870","ELEMENT_SET_NO":"999","PERIOD":"95.592","OBJECT_ID":"2020-074AU","ECCENTRICITY":"0.00013860","FILE":"3499203","LAUNCH_DATE":"2020-10-24","CLASSIFICATION_TYPE":"U","TLE_LINE1":"1 46781U 20074AU  22172.65682296  .00001592  00000-0  12577-3 0  9999","REF_FRAME":"TEME","MEAN_MOTION_DDOT":"0.0000000000000","REV_AT_EPOCH":"9214","MEAN_MOTION_DOT":"0.00001592","GP_ID":"206580780","CENTER_NAME":"EARTH","ARG_OF_PERICENTER":"75.4760","COUNTRY_CODE":"US","SITE":"AFETR","EPHEMERIS_TYPE":"0","MEAN_ELEMENT_THEORY":"SGP4","TIME_SYSTEM":"UTC","APOAPSIS":"548.180","DECAY_DATE":null,"PERIAPSIS":"546.260","BSTAR":"0.00012577000000","OBJECT_NAME":"STARLINK-1834"},{"LAUNCH_DATE":"2020-10-24","FILE":"3499026","ECCENTRICITY":"0.00014540","OBJECT_ID":"2020-074AV","TLE_LINE1":"1 46782U 20074AV  22172.82729037  .00002639  00000-0  19595-3 0  9994","CLASSIFICATION_TYPE":"U","MEAN_ANOMALY":"289.6068","EPOCH":"2022-06-21T19:51:17.887968","RA_OF_ASC_NODE":"282.8073","INCLINATION":"53.0548","RCS_SIZE":"LARGE","OBJECT_TYPE":"PAYLOAD","NORAD_CAT_ID":"46782","SEMIMAJOR_AXIS":"6925.330","PERIOD":"95.592","ELEMENT_SET_NO":"999","TLE_LINE2":"2 46782  53.0548 282.8073 0001454  70.5078 289.6068 15.06406051 92025","MEAN_MOTION":"15.06406051","BSTAR":"0.00019595000000","OBJECT_NAME":"STARLINK-1835","PERIAPSIS":"546.188","DECAY_DATE":null,"APOAPSIS":"548.202","TIME_SYSTEM":"UTC","CENTER_NAME":"EARTH","GP_ID":"206555372","MEAN_MOTION_DDOT":"0.0000000000000","MEAN_MOTION_DOT":"0.00002639","REV_AT_EPOCH":"9202","REF_FRAME":"TEME","EPHEMERIS_TYPE":"0","MEAN_ELEMENT_THEORY":"SGP4","SITE":"AFETR","ARG_OF_PERICENTER":"70.5078","COUNTRY_CODE":"US"},{"SITE":"AFETR","ARG_OF_PERICENTER":"52.3832","COUNTRY_CODE":"US","EPHEMERIS_TYPE":"0","MEAN_ELEMENT_THEORY":"SGP4","MEAN_MOTION_DDOT":"0.0000000000000","MEAN_MOTION_DOT":"-0.00000860","REV_AT_EPOCH":"9227","REF_FRAME":"TEME","CENTER_NAME":"EARTH","GP_ID":"206581777","TIME_SYSTEM":"UTC","BSTAR":"-0.00003886900000","OBJECT_NAME":"STARLINK-1851","DECAY_DATE":null,"APOAPSIS":"548.381","PERIAPSIS":"546.085","TLE_LINE2":"2 46783  53.0558 283.6458 0001658  52.3832 307.7307 15.06393675 92277","MEAN_MOTION":"15.06393675","PERIOD":"95.593","ELEMENT_SET_NO":"999","RA_OF_ASC_NODE":"283.6458","INCLINATION":"53.0558","OBJECT_TYPE":"PAYLOAD","RCS_SIZE":"LARGE","SEMIMAJOR_AXIS":"6925.368","NORAD_CAT_ID":"46783","MEAN_ANOMALY":"307.7307","EPOCH":"2022-06-21T15:25:55.980192","CLASSIFICATION_TYPE":"U","TLE_LINE1":"1 46783U 20074AW  22172.64300903 -.00000860  00000-0 -38869-4 0  9994","ECCENTRICITY":"0.00016580","OBJECT_ID":"2020-074AW","LAUNCH_DATE":"2020-10-24","FILE":"3499203"}];
